{
  "type": "FeatureCollection",
  "features": [
    {
      "type": "Feature",
      "properties": {
        "norad_id": 19071,
        "name": "OSCAR 32",
        "group": "nnss",
        "lat": -40.704907670352675,
        "lon": 17.257565721785767,
        "alt_km": 1299.6789099478556,
        "timestamp": "2025-12-27T11:23:20.166139+00:00",
        "meta_object_name": "OSCAR 32",
        "meta_object_id": "1988-033B",
        "meta_epoch": "2025-12-27T02:53:40.552800",
        "meta_mean_motion": 13.27956077,
        "meta_eccentricity": 0.0189346,
        "meta_inclination": 90.3208,
        "meta_ra_of_asc_node": 16.9704,
        "meta_arg_of_pericenter": 126.9859,
        "meta_mean_anomaly": 301.8778,
        "meta_ephemeris_type": 0,
        "meta_classification_type": "U",
        "meta_norad_cat_id": 19071,
        "meta_element_set_no": 999,
        "meta_rev_at_epoch": 82456,
        "meta_bstar": 0.000144,
        "meta_mean_motion_dot": 8.2e-07,
        "meta_mean_motion_ddot": 0,
        "tle_line1": "1 19071U 88033B   25361.12060825  .00000082  00000+0  14400-3 0  9992",
        "tle_line2": "2 19071  90.3208  16.9704 0189346 126.9859 301.8778 13.27956077824566"
      },
      "geometry": {
        "type": "Point",
        "coordinates": [
          17.257565721785767,
          -40.704907670352675
        ]
      }
    },
    {
      "type": "Feature",
      "properties": {
        "norad_id": 19223,
        "name": "NOVA 2",
        "group": "nnss",
        "lat": -71.00957030328331,
        "lon": -101.70613339161218,
        "alt_km": 1178.8856765628743,
        "timestamp": "2025-12-27T11:23:20.166156+00:00",
        "meta_object_name": "NOVA 2",
        "meta_object_id": "1988-052A",
        "meta_epoch": "2025-12-27T04:56:26.311776",
        "meta_mean_motion": 13.22937732,
        "meta_eccentricity": 0.0029374,
        "meta_inclination": 89.9862,
        "meta_ra_of_asc_node": 78.2541,
        "meta_arg_of_pericenter": 336.6486,
        "meta_mean_anomaly": 75.7931,
        "meta_ephemeris_type": 0,
        "meta_classification_type": "U",
        "meta_norad_cat_id": 19223,
        "meta_element_set_no": 999,
        "meta_rev_at_epoch": 81139,
        "meta_bstar": 0.00015382,
        "meta_mean_motion_dot": 7.3e-07,
        "meta_mean_motion_ddot": 0,
        "tle_line1": "1 19223U 88052A   25361.20586009  .00000073  00000+0  15382-3 0  9998",
        "tle_line2": "2 19223  89.9862  78.2541 0029374 336.6486  75.7931 13.22937732811392"
      },
      "geometry": {
        "type": "Point",
        "coordinates": [
          -101.70613339161218,
          -71.00957030328331
        ]
      }
    },
    {
      "type": "Feature",
      "properties": {
        "norad_id": 19419,
        "name": "OSCAR 25",
        "group": "nnss",
        "lat": -68.53259890043196,
        "lon": 20.37704076116999,
        "alt_km": 1103.9843538760988,
        "timestamp": "2025-12-27T11:23:20.166167+00:00",
        "meta_object_name": "OSCAR 25",
        "meta_object_id": "1988-074A",
        "meta_epoch": "2025-12-27T03:08:34.259712",
        "meta_mean_motion": 13.42625944,
        "meta_eccentricity": 0.0095366,
        "meta_inclination": 90.0336,
        "meta_ra_of_asc_node": 20.2904,
        "meta_arg_of_pericenter": 204.2699,
        "meta_mean_anomaly": 226.4208,
        "meta_ephemeris_type": 0,
        "meta_classification_type": "U",
        "meta_norad_cat_id": 19419,
        "meta_element_set_no": 999,
        "meta_rev_at_epoch": 82833,
        "meta_bstar": 0.00015107,
        "meta_mean_motion_dot": 9.7e-07,
        "meta_mean_motion_ddot": 0,
        "tle_line1": "1 19419U 88074A   25361.13095208  .00000097  00000+0  15107-3 0  9998",
        "tle_line2": "2 19419  90.0336  20.2904 0095366 204.2699 226.4208 13.42625944828333"
      },
      "geometry": {
        "type": "Point",
        "coordinates": [
          20.37704076116999,
          -68.53259890043196
        ]
      }
    },
    {
      "type": "Feature",
      "properties": {
        "norad_id": 19420,
        "name": "OSCAR 31",
        "group": "nnss",
        "lat": 8.217656915614226,
        "lon": -159.35078281660554,
        "alt_km": 1038.1948613947707,
        "timestamp": "2025-12-27T11:23:20.166178+00:00",
        "meta_object_name": "OSCAR 31",
        "meta_object_id": "1988-074B",
        "meta_epoch": "2025-12-27T01:42:52.099776",
        "meta_mean_motion": 13.42586921,
        "meta_eccentricity": 0.0093766,
        "meta_inclination": 90.0353,
        "meta_ra_of_asc_node": 20.6427,
        "meta_arg_of_pericenter": 198.5933,
        "meta_mean_anomaly": 186.3703,
        "meta_ephemeris_type": 0,
        "meta_classification_type": "U",
        "meta_norad_cat_id": 19420,
        "meta_element_set_no": 999,
        "meta_rev_at_epoch": 82843,
        "meta_bstar": 0.00012667,
        "meta_mean_motion_dot": 8.3e-07,
        "meta_mean_motion_ddot": 0,
        "tle_line1": "1 19420U 88074B   25361.07143634  .00000083  00000+0  12667-3 0  9993",
        "tle_line2": "2 19420  90.0353  20.6427 0093766 198.5933 186.3703 13.42586921828432"
      },
      "geometry": {
        "type": "Point",
        "coordinates": [
          -159.35078281660554,
          8.217656915614226
        ]
      }
    }
  ]
}